ADRAS-J                 
1 58992U 24034A   24202.92859524  .00006331  00000+0  58484-3 0  9994
2 58992  98.2130 177.4910 0042132 298.6776  61.0210 14.94312039 22903
